STARLINK-1634           
1 46152U 20057AM  20253.50001157  .00000252  00000-0  85897-5 0  9994
2 46152  52.9986 332.7534 0001360  56.4442  48.8099 15.62750069  4127
STARLINK-1636           
1 46153U 20057AN  20253.50001157 -.00004246  00000-0 -27019-4 0  9995
2 46153  52.9973 331.5018 0001191  77.4562 270.6503 15.72215464  4138
STARLINK-1642           
1 46154U 20057AP  20253.50001157 -.00004420  00000-0 -28311-4 0  9996
2 46154  52.9974 331.4883 0000819  47.3812 306.8853 15.72221371  4133
STARLINK-1667           
1 46155U 20057AQ  20253.25001157  .00022563  00000-0  21929-3 0  9992
2 46155  52.9990 333.5630 0001149  62.6904 274.4793 15.66242588  1770
STARLINK-1545           
1 46156U 20057AR  20253.50001157 -.00003852  00000-0 -31299-4 0  9995
2 46156  52.9997 332.4080 0001489  57.3913 217.3226 15.66248654  4122
STARLINK-1587           
1 46157U 20057AS  20253.50001157 -.00003627  00000-0 -29138-4 0  9995
2 46157  52.9993 332.3375 0001329  38.8440 269.8273 15.66267678  4128
STARLINK-1589           
1 46158U 20057AT  20253.25001157  .00137001  00000-0  15015-2 0  9997
2 46158  53.0013 333.9926 0001517  53.1982  90.6490 15.62328449  1772
STARLINK-1595           
1 46159U 20057AU  20253.25001157 -.01081724  00000-0 -13840-1 0  9994
2 46159  53.0028 334.0188 0001078   6.4343 122.7212 15.61133711  1779
